398P/Boattini,e,11.0179,127.4333,320.2090,3.126394,0.1782947,0.58317450,152.2579,04/30.0/2023,2000,g 15.5,4.0
# From MPEC 2022-M88
399P/PANSTARRS,e,13.3218,207.1310,214.3587,3.792304,0.1334594,0.44732694,94.3731,04/30.0/2023,2000,g 14.0,4.0
# From MPEC 2022-ED3
400P/PANSTARRS,e,10.9297,176.3901,238.8371,3.561736,0.1466262,0.40960888,118.5504,04/30.0/2023,2000,g 15.5,2.8
# From MPEC 2022-K19
401P/McNaught,e,12.8025,359.8856,309.4354,5.777298,0.0709769,0.57934732,88.0471,04/30.0/2023,2000,g 12.5,4.0
# From MPEC 2023-HD1
402P/LINEAR,e,30.8412,123.0886,326.7739,7.027134,0.0529099,0.43957422,26.5140,04/30.0/2023,2000,g 11.2,4.0
# From MPEC 2021-J28
403P/Catalina,e,12.3203,163.8063,277.6449,5.429028,0.0779150,0.50400888,74.4317,04/30.0/2023,2000,g 12.0,4.0
# From MPEC 2023-D41
404P/Bressi,e,9.7756,260.0866,169.1041,4.747868,0.0952700,0.12953265,342.2512,04/30.0/2023,2000,g 10.0,4.0
# From MPEC 2021-F20
406P/Gibbs,e,1.2128,11.4971,352.4329,3.577281,0.1456715,0.54192174,139.2705,04/30.0/2023,2000,g 17.0,4.0
# From MPEC 2022-YN2
407P/PANSTARRS-Fuls,e,4.8740,80.3384,93.5686,3.478755,0.1519037,0.37906652,180.4749,04/30.0/2023,2000,g 14.0,4.0
# From MPEC 2023-G31
408P/Novichonok-Gerke,e,19.3569,189.4419,226.4984,4.742268,0.0954388,0.26876725,19.7289,04/30.0/2023,2000,g 11.0,4.0
# From MPEC 2022-ED3
409P/LONEOS-Hill,e,17.1233,143.6610,15.0855,6.037384,0.0664402,0.70964734,54.6149,04/30.0/2023,2000,g 14.0,4.0
# From MPEC 2022-M21
410P/NEAT-LINEAR,e,9.3915,139.9718,313.1172,6.643026,0.0575646,0.51128768,38.8677,04/30.0/2023,2000,g 12.5,4.0
# From MPEC 2021-J28
411P/Christensen,e,12.3842,77.6525,46.5909,5.812589,0.0703315,0.58097577,58.0673,04/30.0/2023,2000,g 13.5,4.0
# From MPEC 2021-F20
412P/WISE,e,8.9314,0.8445,155.9345,3.110221,0.1796872,0.47904321,157.4517,04/30.0/2023,2000,g 17.0,4.0
# From MPEC 2022-OB6
413P/Larson,e,15.9901,38.9466,186.5174,3.721290,0.1372979,0.42265103,89.0108,04/30.0/2023,2000,g 14.0,4.0
# From MPEC 2021-BE3
414P/STEREO,e,23.3983,257.8030,210.6951,2.793297,0.2111195,0.81183125,174.0985,04/30.0/2023,2000,g 19.0,4.0
# From MPEC 2022-J42
415P/Tenagra,e,31.7922,160.2858,345.9903,4.111776,0.1182115,0.19473983,95.1870,04/30.0/2023,2000,g 12.0,4.0
# From MPEC 2021-L04
416P/Scotti,e,3.3612,355.7963,134.4156,4.009438,0.1227662,0.45450155,98.6608,04/30.0/2023,2000,g 15.5,4.0
# From MPEC 2021-W31
417P/NEOWISE,e,8.1375,110.4989,129.8530,3.337488,0.1616496,0.55914230,118.9692,04/30.0/2023,2000,g 16.5,4.0
# From MPEC 2022-TA0
418P/LINEAR,e,5.7866,277.4533,307.5164,5.094582,0.0857119,0.66463987,47.9495,04/30.0/2023,2000,g 13.0,4.0
# From MPEC 2022-ST7
419P/PANSTARRS,e,2.8030,40.3879,187.6577,3.522511,0.1490821,0.27734825,81.8666,04/30.0/2023,2000,g 12.5,4.0
# From MPEC 2022-OB6
420P/Hill,e,14.4955,173.9243,156.8213,5.529775,0.0757954,0.49643104,26.0382,04/30.0/2023,2000,g 11.5,4.0
# From MPEC 2021-W31
421P/McNaught,e,10.0767,55.3376,259.8820,5.076366,0.0861737,0.67513420,71.0452,04/30.0/2023,2000,g 14.0,4.0
# From MPEC 2022-X67
422P/Christensen,e,39.5845,36.0276,304.9772,6.297571,0.0623655,0.50726946,29.4458,04/30.0/2023,2000,g 11.0,4.0
# From MPEC 2023-FK0
423P/Lemmon,e,8.3463,33.2956,80.3447,6.171547,0.0642855,0.12183620,37.7924,04/30.0/2023,2000,g  8.0,4.0
# From MPEC 2022-CN4
424P/LaSagra,e,8.6849,51.1648,312.5360,4.417151,0.1061673,0.69123529,57.8999,04/30.0/2023,2000,g 17.0,4.0
# From MPEC 2023-BF4
425P/Kowalski,e,16.4207,210.0753,200.8283,6.339589,0.0617465,0.54393141,36.1976,04/30.0/2023,2000,g 12.0,4.0
# From MPEC 2022-P82
426P/PANSTARRS,e,17.7642,280.4750,118.8564,3.189738,0.1730101,0.16179016,336.5199,04/30.0/2023,2000,g 13.5,4.0
# From MPEC 2022-J42
428P/Gibbs,e,8.5108,299.3400,36.8705,3.485941,0.1514342,0.51919681,108.3409,04/30.0/2023,2000,g 15.0,4.0
# From MPEC 2022-H04
429P/LINEAR-Hill,e,7.5199,322.0725,75.5917,3.552883,0.1471746,0.49141692,71.0493,04/30.0/2023,2000,g 15.5,4.0
# From MPEC 2022-L66
430P/Scotti,e,4.4753,54.6735,94.4511,3.105183,0.1801247,0.49958222,92.5546,04/30.0/2023,2000,g 16.5,4.0
# From MPEC 2023-D72
431P/Scotti,e,22.3924,202.8424,199.9103,3.474283,0.1521971,0.47779506,67.0480,04/30.0/2023,2000,g 14.0,4.0
# From MPEC 2021-U31
432P/PANSTARRS,e,10.0686,239.1388,105.2808,3.035845,0.1863308,0.24174984,113.2286,04/30.0/2023,2000,g 17.0,4.0
# From MPEC 2022-OB6
434P/Tenagra,e,6.3374,288.9607,128.1725,4.131208,0.1173785,0.27468730,64.6320,04/30.0/2023,2000,g 13.0,4.0
# From MPEC 2021-W31
435P/PANSTARRS,e,18.8785,98.5479,244.2094,3.019287,0.1878657,0.31845132,120.5259,04/30.0/2023,2000,g 17.0,4.0
# From MPEC 2022-X67
436P/Garradd,e,20.2061,87.1845,282.6421,5.931772,0.0682225,0.66979896,34.6209,04/30.0/2023,2000,g 14.5,4.0
# From MPEC 2023-B57
437P/Lemmon-PANSTARRS,e,3.6889,245.8588,206.7766,4.562175,0.1011454,0.25466691,25.7162,04/30.0/2023,2000,g 13.0,4.0
# From MPEC 2021-W47
438P/Christensen,e,8.2833,260.1370,59.0191,3.849068,0.1305181,0.41519164,146.1826,04/30.0/2023,2000,g 14.5,4.0
# From MPEC 2022-C56
439P/LINEAR,e,7.1145,56.4027,342.0664,3.489670,0.1511915,0.46960605,92.4908,04/30.0/2023,2000,g 13.5,4.0
# From MPEC 2022-WQ9
440P/Kobayashi,e,12.3390,328.8707,183.2990,8.580471,0.0392137,0.76043166,15.5322,04/30.0/2023,2000,g 15.5,4.0
# From MPEC 2022-X67
441P/PANSTARRS,e,2.5745,143.6134,178.8085,4.134499,0.1172384,0.19533892,258.8402,04/30.0/2023,2000,g 13.5,4.0
# From MPEC 2022-YN2
442P/McNaught,e,6.0590,32.0155,310.8758,4.974213,0.0888418,0.53329722,22.5786,04/30.0/2023,2000,g 13.5,4.0
# From MPEC 2022-OB6
443P/PANSTARRS-Christensen,e,19.8880,108.9430,145.1100,4.126660,0.1175726,0.28363534,23.7334,04/30.0/2023,2000,g 13.5,4.0
# From MPEC 2022-YN2
444P/WISE-PANSTARRS,e,22.1251,89.3643,170.9804,3.430702,0.1551063,0.57048325,45.5285,04/30.0/2023,2000,g 17.0,4.0
# From MPEC 2022-YB4
445P/Lemmon-PANSTARRS,e,1.0885,126.5877,213.5933,4.058616,0.1205416,0.41433793,30.8023,04/30.0/2023,2000,g 15.0,4.0
# From MPEC 2022-WQ9
446P/McNaught,e,16.6133,336.3971,344.7087,4.569744,0.1008942,0.64698648,33.8449,04/30.0/2023,2000,g 16.5,4.0
# From MPEC 2022-YB4
447P/Sheppard-Tholen,e,7.4345,302.6606,97.7087,5.638882,0.0736062,0.17943043,18.6749,04/30.0/2023,2000,g 12.0,4.0
# From MPEC 2023-A50
448P/PANSTARRS,e,12.1515,161.7540,218.7234,3.634268,0.1422586,0.41884917,33.4979,04/30.0/2023,2000,g 16.0,4.0
# From MPEC 2022-UE6
449P/Leonard,e,15.4665,242.5293,176.6959,3.600210,0.1442820,0.47966638,127.9759,04/30.0/2023,2000,g 16.0,4.0
# From MPEC 2022-TA6
450P/LONEOS,e,10.5520,124.8508,21.1218,7.973179,0.0437781,0.31075329,300.5446,04/30.0/2023,2000,g  6.5,4.0
# From MPEC 2023-HD1
451P/Christensen,e,26.4813,300.9103,186.7006,6.339945,0.0617413,0.55858701,9.4744,04/30.0/2023,2000,g 15.5,4.0
# From MPEC 2023-HD1
452P/Sheppard-Jewitt,e,6.4223,123.6975,37.0483,7.296303,0.0500092,0.42735637,0.2183,04/30.0/2023,2000,g 12.6,4.0
# From MPEC 2023-HD1
453P/WISE-Lemmon,e,27.0678,42.8973,70.8293,5.457966,0.0772961,0.58253961,4.4809,04/30.0/2023,2000,g 15.2,4.0
# From MPEC 2023-CD7
454P/PANSTARRS,e,19.8124,54.5869,20.0131,4.205907,0.1142654,0.36140042,31.7584,04/30.0/2023,2000,g 14.0,4.0
# From MPEC 2022-Y14
455P/PANSTARRS,e,14.1370,146.1973,237.5486,3.154588,0.1759098,0.30524871,11.1884,04/30.0/2023,2000,g 17.0,4.0
# From MPEC 2023-BD5
456P/PANSTARRS,e,16.9596,243.1985,234.3508,3.166834,0.1748904,0.11813996,233.8155,04/30.0/2023,2000,g 13.5,4.0
# From MPEC 2023-F99
457P/Lemmon-PANSTARRS,e,5.2255,175.9749,104.4757,2.645775,0.2290207,0.11884775,250.3942,04/30.0/2023,2000,g 15.5,4.0
# From MPEC 2023-HD1
458P/Jahn,e,13.6287,1.5872,104.7929,3.855873,0.1301727,0.31683672,23.6749,04/30.0/2023,2000,g 17.3,4.0
# From MPEC 2023-HD1
459P/Catalina,e,7.1719,256.9996,205.1811,3.238655,0.1691052,0.57755039,11.4343,04/30.0/2023,2000,g 16.0,4.0
# From MPEC 2023-G14
460P/PANSTARRS,e,18.8965,180.5137,351.9717,3.026915,0.1871560,0.66426068,127.6699,04/30.0/2023,2000,g 21.0,4.0
# From MPC107687
1I/`Oumuamua,h,09/09.4886/2017,122.6778,24.5997,241.6845,1.199252,0.255240,2000,23.0,2.0
# From MPEC 2020-K19
2I/Borisov,h,12/08.5549/2019,44.0527,308.1480,209.1251,3.356636,2.006548,2000,11.0,4.0
